STARLINK-1114
1 44927U 20001P   26061.13251954  .00090366  00000+0  16453-2 0  9998
2 44927  53.0509   5.5993 0008446  88.3472 271.8503 15.48725991338927
STARLINK-1892
1 46743U 20074E   26061.05975325  .00095977  00000+0  17487-2 0  9993
2 46743  53.0489 330.1086 0006252  71.6502 288.5185 15.48694371295890
